CCSDS_OMM_VERS = 2.0
CREATION_DATE  = 
ORIGINATOR     = 

OBJECT_NAME    = ATLAS CENTAUR 2
OBJECT_ID      = 1963-047A
CENTER_NAME    = EARTH
REF_FRAME      = TEME
TIME_SYSTEM    = UTC
MEAN_ELEMENT_THEORY = SGP/SGP4

EPOCH          = 2025-11-23T10:01:08.276160
MEAN_MOTION    = 14.11591581
ECCENTRICITY   = .0549621
INCLINATION    = 30.3574
RA_OF_ASC_NODE = 69.3667
ARG_OF_PERICENTER = 224.0176
MEAN_ANOMALY   = 131.5379

EPHEMERIS_TYPE = 0
CLASSIFICATION_TYPE = U
NORAD_CAT_ID   = 694
ELEMENT_SET_NO = 999
REV_AT_EPOCH   = 11659
BSTAR          = .49328E-3
MEAN_MOTION_DOT = .4127E-4
MEAN_MOTION_DDOT = 0

CCSDS_OMM_VERS = 2.0
CREATION_DATE  = 
ORIGINATOR     = 

OBJECT_NAME    = THOR AGENA D R/B
OBJECT_ID      = 1964-002A
CENTER_NAME    = EARTH
REF_FRAME      = TEME
TIME_SYSTEM    = UTC
MEAN_ELEMENT_THEORY = SGP/SGP4

EPOCH          = 2025-11-22T23:24:42.831072
MEAN_MOTION    = 14.33942599
ECCENTRICITY   = .0032409
INCLINATION    = 99.1219
RA_OF_ASC_NODE = 329.5252
ARG_OF_PERICENTER = 207.7058
MEAN_ANOMALY   = 152.2400

EPHEMERIS_TYPE = 0
CLASSIFICATION_TYPE = U
NORAD_CAT_ID   = 733
ELEMENT_SET_NO = 999
REV_AT_EPOCH   = 22300
BSTAR          = .1052E-3
MEAN_MOTION_DOT = .246E-5
MEAN_MOTION_DDOT = 0

CCSDS_OMM_VERS = 2.0
CREATION_DATE  = 
ORIGINATOR     = 

OBJECT_NAME    = SL-3 R/B
OBJECT_ID      = 1964-053B
CENTER_NAME    = EARTH
REF_FRAME      = TEME
TIME_SYSTEM    = UTC
MEAN_ELEMENT_THEORY = SGP/SGP4

EPOCH          = 2025-11-23T08:11:02.134752
MEAN_MOTION    = 14.61245330
ECCENTRICITY   = .0072118
INCLINATION    = 65.0769
RA_OF_ASC_NODE = 282.9939
ARG_OF_PERICENTER = 326.8865
MEAN_ANOMALY   = 32.7730

EPHEMERIS_TYPE = 0
CLASSIFICATION_TYPE = U
NORAD_CAT_ID   = 877
ELEMENT_SET_NO = 999
REV_AT_EPOCH   = 25125
BSTAR          = .12199E-3
MEAN_MOTION_DOT = .501E-5
MEAN_MOTION_DDOT = 0

CCSDS_OMM_VERS = 2.0
CREATION_DATE  = 
ORIGINATOR     = 

OBJECT_NAME    = SL-8 R/B
OBJECT_ID      = 1967-045B
CENTER_NAME    = EARTH
REF_FRAME      = TEME
TIME_SYSTEM    = UTC
MEAN_ELEMENT_THEORY = SGP/SGP4

EPOCH          = 2025-11-23T01:38:50.290368
MEAN_MOTION    = 14.45514269
ECCENTRICITY   = .0065143
INCLINATION    = 74.0098
RA_OF_ASC_NODE = 187.1932
ARG_OF_PERICENTER = 220.9345
MEAN_ANOMALY   = 138.6913

EPHEMERIS_TYPE = 0
CLASSIFICATION_TYPE = U
NORAD_CAT_ID   = 2802
ELEMENT_SET_NO = 999
REV_AT_EPOCH   = 7361
BSTAR          = .91377E-4
MEAN_MOTION_DOT = .302E-5
MEAN_MOTION_DDOT = 0

CCSDS_OMM_VERS = 2.0
CREATION_DATE  = 
ORIGINATOR     = 

OBJECT_NAME    = SL-8 R/B
OBJECT_ID      = 1968-040B
CENTER_NAME    = EARTH
REF_FRAME      = TEME
TIME_SYSTEM    = UTC
MEAN_ELEMENT_THEORY = SGP/SGP4

EPOCH          = 2025-11-22T22:19:52.461120
MEAN_MOTION    = 15.02338728
ECCENTRICITY   = .0024182
INCLINATION    = 74.0294
RA_OF_ASC_NODE = 171.6830
ARG_OF_PERICENTER = 18.4628
MEAN_ANOMALY   = 341.7432

EPHEMERIS_TYPE = 0
CLASSIFICATION_TYPE = U
NORAD_CAT_ID   = 3230
ELEMENT_SET_NO = 999
REV_AT_EPOCH   = 7397
BSTAR          = .2501E-3
MEAN_MOTION_DOT = .3286E-4
MEAN_MOTION_DDOT = 0

CCSDS_OMM_VERS = 2.0
CREATION_DATE  = 
ORIGINATOR     = 

OBJECT_NAME    = OAO 2
OBJECT_ID      = 1968-110A
CENTER_NAME    = EARTH
REF_FRAME      = TEME
TIME_SYSTEM    = UTC
MEAN_ELEMENT_THEORY = SGP/SGP4

EPOCH          = 2025-11-23T11:17:21.995808
MEAN_MOTION    = 14.47226157
ECCENTRICITY   = .0004925
INCLINATION    = 34.9917
RA_OF_ASC_NODE = 138.2327
ARG_OF_PERICENTER = 61.3690
MEAN_ANOMALY   = 298.7495

EPHEMERIS_TYPE = 0
CLASSIFICATION_TYPE = U
NORAD_CAT_ID   = 3597
ELEMENT_SET_NO = 999
REV_AT_EPOCH   = 370
BSTAR          = .77532E-4
MEAN_MOTION_DOT = .268E-5
MEAN_MOTION_DDOT = 0

CCSDS_OMM_VERS = 2.0
CREATION_DATE  = 
ORIGINATOR     = 

OBJECT_NAME    = ISIS 1
OBJECT_ID      = 1969-009A
CENTER_NAME    = EARTH
REF_FRAME      = TEME
TIME_SYSTEM    = UTC
MEAN_ELEMENT_THEORY = SGP/SGP4

EPOCH          = 2025-11-23T01:22:19.785216
MEAN_MOTION    = 11.30343100
ECCENTRICITY   = .1707089
INCLINATION    = 88.4499
RA_OF_ASC_NODE = 166.9491
ARG_OF_PERICENTER = 304.4810
MEAN_ANOMALY   = 40.6310

EPHEMERIS_TYPE = 0
CLASSIFICATION_TYPE = U
NORAD_CAT_ID   = 3669
ELEMENT_SET_NO = 999
REV_AT_EPOCH   = 33648
BSTAR          = .11289E-3
MEAN_MOTION_DOT = .155E-5
MEAN_MOTION_DDOT = 0

CCSDS_OMM_VERS = 2.0
CREATION_DATE  = 
ORIGINATOR     = 

OBJECT_NAME    = SERT 2
OBJECT_ID      = 1970-009A
CENTER_NAME    = EARTH
REF_FRAME      = TEME
TIME_SYSTEM    = UTC
MEAN_ELEMENT_THEORY = SGP/SGP4

EPOCH          = 2025-11-23T10:47:43.487232
MEAN_MOTION    = 13.58714061
ECCENTRICITY   = .0005756
INCLINATION    = 99.2620
RA_OF_ASC_NODE = 271.4294
ARG_OF_PERICENTER = 77.0501
MEAN_ANOMALY   = 30.3703

EPHEMERIS_TYPE = 0
CLASSIFICATION_TYPE = U
NORAD_CAT_ID   = 4327
ELEMENT_SET_NO = 999
REV_AT_EPOCH   = 76546
BSTAR          = .12959E-3
MEAN_MOTION_DOT = .54E-6
MEAN_MOTION_DDOT = 0

CCSDS_OMM_VERS = 2.0
CREATION_DATE  = 
ORIGINATOR     = 

OBJECT_NAME    = SL-3 R/B
OBJECT_ID      = 1971-028B
CENTER_NAME    = EARTH
REF_FRAME      = TEME
TIME_SYSTEM    = UTC
MEAN_ELEMENT_THEORY = SGP/SGP4

EPOCH          = 2025-11-23T10:03:46.384704
MEAN_MOTION    = 15.53096483
ECCENTRICITY   = .0020135
INCLINATION    = 81.2382
RA_OF_ASC_NODE = 182.4389
ARG_OF_PERICENTER = 311.3947
MEAN_ANOMALY   = 48.5570

EPHEMERIS_TYPE = 0
CLASSIFICATION_TYPE = U
NORAD_CAT_ID   = 5118
ELEMENT_SET_NO = 999
REV_AT_EPOCH   = 97213
BSTAR          = .41435E-3
MEAN_MOTION_DOT = .26225E-3
MEAN_MOTION_DDOT = 0

CCSDS_OMM_VERS = 2.0
CREATION_DATE  = 
ORIGINATOR     = 

OBJECT_NAME    = ASTEX 1
OBJECT_ID      = 1971-089A
CENTER_NAME    = EARTH
REF_FRAME      = TEME
TIME_SYSTEM    = UTC
MEAN_ELEMENT_THEORY = SGP/SGP4

EPOCH          = 2025-11-23T09:22:16.048128
MEAN_MOTION    = 14.50607815
ECCENTRICITY   = .0017878
INCLINATION    = 92.7130
RA_OF_ASC_NODE = 117.3606
ARG_OF_PERICENTER = 84.7292
MEAN_ANOMALY   = 275.5953

EPHEMERIS_TYPE = 0
CLASSIFICATION_TYPE = U
NORAD_CAT_ID   = 5560
ELEMENT_SET_NO = 999
REV_AT_EPOCH   = 84689
BSTAR          = .15291E-3
MEAN_MOTION_DOT = .6E-5
MEAN_MOTION_DDOT = 0

CCSDS_OMM_VERS = 2.0
CREATION_DATE  = 
ORIGINATOR     = 

OBJECT_NAME    = SL-8 R/B
OBJECT_ID      = 1971-119B
CENTER_NAME    = EARTH
REF_FRAME      = TEME
TIME_SYSTEM    = UTC
MEAN_ELEMENT_THEORY = SGP/SGP4

EPOCH          = 2025-11-23T07:30:29.770848
MEAN_MOTION    = 14.35200981
ECCENTRICITY   = .0560536
INCLINATION    = 73.8888
RA_OF_ASC_NODE = 14.1785
ARG_OF_PERICENTER = 2.3857
MEAN_ANOMALY   = 357.9761

EPHEMERIS_TYPE = 0
CLASSIFICATION_TYPE = U
NORAD_CAT_ID   = 5730
ELEMENT_SET_NO = 999
REV_AT_EPOCH   = 64021
BSTAR          = .54522E-3
MEAN_MOTION_DOT = .10333E-3
MEAN_MOTION_DDOT = 0

CCSDS_OMM_VERS = 2.0
CREATION_DATE  = 
ORIGINATOR     = 

OBJECT_NAME    = OAO 3 (COPERNICUS)
OBJECT_ID      = 1972-065A
CENTER_NAME    = EARTH
REF_FRAME      = TEME
TIME_SYSTEM    = UTC
MEAN_ELEMENT_THEORY = SGP/SGP4

EPOCH          = 2025-11-23T01:37:26.050368
MEAN_MOTION    = 14.59881461
ECCENTRICITY   = .0006599
INCLINATION    = 35.0044
RA_OF_ASC_NODE = 184.7290
ARG_OF_PERICENTER = 1.5038
MEAN_ANOMALY   = 159.7010

EPHEMERIS_TYPE = 0
CLASSIFICATION_TYPE = U
NORAD_CAT_ID   = 6153
ELEMENT_SET_NO = 999
REV_AT_EPOCH   = 83060
BSTAR          = .81908E-4
MEAN_MOTION_DOT = .377E-5
MEAN_MOTION_DDOT = 0

