ATLAS CENTAUR 2         
1 00694U 63047A   25327.41745690  .00004127  00000+0  49328-3 0  9996
2 00694  30.3574  69.3667 0549621 224.0176 131.5379 14.11591581116596
THOR AGENA D R/B        
1 00733U 64002A   25326.97549573  .00000246  00000+0  10520-3 0  9994
2 00733  99.1219 329.5252 0032409 207.7058 152.2400 14.33942599223001
SL-3 R/B                
1 00877U 64053B   25327.34099693  .00000501  00000+0  12199-3 0  9992
2 00877  65.0769 282.9939 0072118 326.8865  32.7730 14.61245330251252
SL-8 R/B                
1 02802U 67045B   25327.06863762  .00000302  00000+0  91377-4 0  9996
2 02802  74.0098 187.1932 0065143 220.9345 138.6913 14.45514269 73616
SL-8 R/B                
1 03230U 68040B   25326.93046830  .00003286  00000+0  25010-3 0  9996
2 03230  74.0294 171.6830 0024182  18.4628 341.7432 15.02338728 73977
OAO 2                   
1 03597U 68110A   25327.47039347  .00000268  00000+0  77532-4 0  9999
2 03597  34.9917 138.2327 0004925  61.3690 298.7495 14.47226157  3703
ISIS 1                  
1 03669U 69009A   25327.05717344  .00000155  00000+0  11289-3 0  9992
2 03669  88.4499 166.9491 1707089 304.4810  40.6310 11.30343100336480
SERT 2                  
1 04327U 70009A   25327.44980888  .00000054  00000+0  12959-3 0  9997
2 04327  99.2620 271.4294 0005756  77.0501  30.3703 13.58714061765468
SL-3 R/B                
1 05118U 71028B   25327.41928686  .00026225  00000+0  41435-3 0  9992
2 05118  81.2382 182.4389 0020135 311.3947  48.5570 15.53096483972130
ASTEX 1                 
1 05560U 71089A   25327.39046352  .00000600  00000+0  15291-3 0  9998
2 05560  92.7130 117.3606 0017878  84.7292 275.5953 14.50607815846895
SL-8 R/B                
1 05730U 71119B   25327.31284457  .00010333  00000+0  54522-3 0  9997
2 05730  73.8888  14.1785 0560536   2.3857 357.9761 14.35200981640219
OAO 3 (COPERNICUS)      
1 06153U 72065A   25327.06766262  .00000377  00000+0  81908-4 0  9995
2 06153  35.0044 184.7290 0006599   1.5038 159.7010 14.59881461830607
